NORAD_CAT_ID,OBJECT_NAME,OBJECT_TYPE,EPOCH,MEAN_MOTION,ECCENTRICITY,INCLINATION,RA_OF_ASC_NODE,ARG_OF_PERICENTER,MEAN_ANOMALY,BSTAR,MEAN_MOTION_DOT,MEAN_MOTION_DDOT,TLE_LINE0,TLE_LINE1,TLE_LINE2,SEMIMAJOR_AXIS,PERIOD,APOGEE,PERIGEE,DECAYED
49736.0,STARLINK-3148,PAYLOAD,2023-06-12 17:20:11,15.08839042,6.23e-05,53.2173,322.6465,85.4375,274.6688,8.357e-05,1.043e-05,0.0,0 STARLINK-3148,1 49736U 21115N   23163.72235991  .00001043  00000-0  83570-4 0  9997,2 49736  53.2173 322.6465 0000623  85.4375 274.6688 15.08839042 84422,6917.883,95.438,540.179,539.317,0.0
49736.0,STARLINK-3148,PAYLOAD,2023-06-13 10:49:26,15.08833802,7.9e-05,53.2173,319.3754,89.104,271.0043,2.5058e-05,1.11e-06,0.0,0 STARLINK-3148,1 49736U 21115N   23164.45100591  .00000111  00000-0  25058-4 0  9997,2 49736  53.2173 319.3754 0000790  89.1040 271.0043 15.08833802 84537,6917.899,95.438,540.311,539.218,0.0
49736.0,STARLINK-3148,PAYLOAD,2023-06-14 10:40:14,15.0883423,9.3e-05,53.2186,314.9152,76.1071,284.0025,2.1046e-05,4.7e-07,0.0,0 STARLINK-3148,1 49736U 21115N   23165.44460838  .00000047  00000-0  21046-4 0  9991,2 49736  53.2186 314.9152 0000930  76.1071 284.0025 15.08834230 84686,6917.898,95.438,540.406,539.12,0.0
49736.0,STARLINK-3148,PAYLOAD,2023-06-14 17:01:46,15.08839176,9.77e-05,53.219,313.7262,76.4976,283.6125,5.2816e-05,5.53e-06,0.0,0 STARLINK-3148,1 49736U 21115N   23165.70956503  .00000553  00000-0  52816-4 0  9990,2 49736  53.2190 313.7262 0000977  76.4976 283.6125 15.08839176 85836,6917.883,95.438,540.424,539.072,0.0
49736.0,STARLINK-3148,PAYLOAD,2023-06-14 20:12:32,15.08831062,9.43e-05,53.2186,313.1312,90.6909,269.4192,0.00017909,2.563e-05,0.0,0 STARLINK-3148,1 49736U 21115N   23165.84204729  .00002563  00000-0  17909-3 0  9997,2 49736  53.2186 313.1312 0000943  90.6909 269.4192 15.08831062 84749,6917.908,95.438,540.425,539.12,0.0
49736.0,STARLINK-3148,PAYLOAD,2023-06-15 10:31:01,15.08831749,9.17e-05,53.2174,310.4542,87.3778,272.7319,1.5784e-05,-3.7e-07,0.0,0 STARLINK-3148,1 49736U 21115N   23166.43821331 -.00000037  00000-0  15784-4 0  9992,2 49736  53.2174 310.4542 0000917  87.3778 272.7319 15.08831749 85942,6917.906,95.438,540.405,539.136,0.0
49736.0,STARLINK-3148,PAYLOAD,2023-06-15 18:27:56,15.08845218,0.0001163,53.2183,308.9677,99.0092,261.1032,1.0262e-05,-1.24e-06,0.0,0 STARLINK-3148,1 49736U 21115N   23166.76940570 -.00000124  00000-0  10262-4 0  9998,2 49736  53.2183 308.9677 0001163  99.0092 261.1032 15.08845218 85991,6917.864,95.437,540.534,538.925,0.0
49736.0,STARLINK-3148,PAYLOAD,2023-06-16 10:21:47,15.08846305,9.68e-05,53.2183,305.9938,88.8128,271.2976,0.00016543,2.346e-05,0.0,0 STARLINK-3148,1 49736U 21115N   23167.43180146  .00002346  00000-0  16543-3 0  9992,2 49736  53.2183 305.9938 0000968  88.8128 271.2976 15.08846305 84981,6917.861,95.437,540.396,539.056,0.0
49736.0,STARLINK-3148,PAYLOAD,2023-06-16 18:18:42,15.08860435,8.54e-05,53.2182,304.5063,77.1999,282.9088,0.00024307,3.585e-05,0.0,0 STARLINK-3148,1 49736U 21115N   23167.76298962  .00003585  00000-0  24307-3 0  9997,2 49736  53.2182 304.5063 0000854  77.1999 282.9088 15.08860435 85035,6917.818,95.436,540.274,539.092,0.0
49736.0,STARLINK-3148,PAYLOAD,2023-06-17 08:37:13,15.08812572,9.31e-05,53.218,301.8306,95.3648,264.745,-0.00029257,-4.937e-05,0.0,0 STARLINK-3148,1 49736U 21115N   23168.35918029 -.00004937  00000-0 -29257-3 0  9999,2 49736  53.2180 301.8306 0000931  95.3648 264.7450 15.08812572 86235,6917.964,95.439,540.473,539.185,0.0
49736.0,STARLINK-3148,PAYLOAD,2023-06-17 11:47:59,15.08813887,9.06e-05,53.2168,301.2357,98.5548,261.5547,-0.00042132,-6.982e-05,0.0,0 STARLINK-3148,1 49736U 21115N   23168.49165670 -.00006982  00000-0 -42132-3 0  9999,2 49736  53.2168 301.2357 0000906  98.5548 261.5547 15.08813887 85148,6917.96,95.439,540.452,539.198,0.0
49736.0,STARLINK-3148,PAYLOAD,2023-06-17 14:58:45,15.08813518,9.03e-05,53.2168,300.641,96.6348,263.4746,-0.00038796,-6.452e-05,0.0,0 STARLINK-3148,1 49736U 21115N   23168.62413913 -.00006452  00000-0 -38796-3 0  9993,2 49736  53.2168 300.6410 0000903  96.6348 263.4746 15.08813518 85160,6917.961,95.439,540.451,539.202,0.0
49736.0,STARLINK-3148,PAYLOAD,2023-06-18 02:06:27,15.08822652,8.28e-05,53.2168,298.5591,103.7893,256.3192,0.0001713,2.438e-05,0.0,0 STARLINK-3148,1 49736U 21115N   23169.08782050  .00002438  00000-0  17130-3 0  9992,2 49736  53.2168 298.5591 0000828 103.7893 256.3192 15.08822652 86342,6917.933,95.439,540.371,539.226,0.0
49736.0,STARLINK-3148,PAYLOAD,2023-06-18 14:49:33,15.08839547,7.64e-05,53.2166,296.1806,107.0026,253.105,0.0011863,0.00018642,0.0,0 STARLINK-3148,1 49736U 21115N   23169.61774638  .00018642  00000-0  11863-2 0  9994,2 49736  53.2166 296.1806 0000764 107.0026 253.1050 15.08839547 86425,6917.882,95.438,540.275,539.218,0.0
49736.0,STARLINK-3148,PAYLOAD,2023-06-19 14:40:19,15.08871668,6.97e-05,53.2166,291.7205,95.753,264.3542,0.0010754,0.00016883,0.0,0 STARLINK-3148,1 49736U 21115N   23170.61133589  .00016883  00000-0  10754-2 0  9993,2 49736  53.2166 291.7205 0000697  95.7530 264.3542 15.08871668 85460,6917.784,95.436,540.131,539.166,0.0
49736.0,STARLINK-3148,PAYLOAD,2023-06-20 08:09:33,15.08862502,7.89e-05,53.2167,288.4491,82.574,277.5342,0.00056685,8.751e-05,0.0,0 STARLINK-3148,1 49736U 21115N   23171.33997171  .00008751  00000-0  56685-3 0  9997,2 49736  53.2167 288.4491 0000789  82.5740 277.5342 15.08862502 86686,6917.812,95.436,540.222,539.131,0.0
49736.0,STARLINK-3148,PAYLOAD,2023-06-20 11:20:19,15.08861416,5.5e-05,53.217,287.8546,150.7846,209.3177,0.00048876,7.504e-05,0.0,0 STARLINK-3148,1 49736U 21115N   23171.47244872  .00007504  00000-0  48876-3 0  9993,2 49736  53.2170 287.8546 0000550 150.7846 209.3177 15.08861416 85596,6917.815,95.436,540.06,539.299,0.0
49736.0,STARLINK-3148,PAYLOAD,2023-06-20 17:41:52,15.08855252,5.72e-05,53.2171,286.6651,106.2736,253.8319,0.0004238,6.466e-05,0.0,0 STARLINK-3148,1 49736U 21115N   23171.73740893  .00006466  00000-0  42380-3 0  9996,2 49736  53.2171 286.6651 0000572 106.2736 253.8319 15.08855252 86740,6917.834,95.437,540.094,539.303,0.0
49736.0,STARLINK-3148,PAYLOAD,2023-06-21 12:46:29,15.08842734,8.11e-05,53.2164,283.0962,104.0727,256.0356,0.00013907,1.926e-05,0.0,0 STARLINK-3148,1 49736U 21115N   23172.53229135  .00001926  00000-0  13907-3 0  9995,2 49736  53.2164 283.0962 0000811 104.0727 256.0356 15.08842734 86860,6917.872,95.437,540.298,539.176,0.0
49736.0,STARLINK-3148,PAYLOAD,2023-06-21 14:21:52,15.08848451,7.67e-05,53.2167,282.7997,93.5182,266.5898,0.00016684,2.369e-05,0.0,0 STARLINK-3148,1 49736U 21115N   23172.59852881  .00002369  00000-0  16684-3 0  9998,2 49736  53.2167 282.7997 0000767  93.5182 266.5898 15.08848451 85761,6917.855,95.437,540.25,539.189,0.0
49736.0,STARLINK-3148,PAYLOAD,2023-06-22 07:51:07,15.08839583,6.58e-05,53.2169,279.5316,94.9041,265.2026,1.7678e-05,-6e-08,0.0,0 STARLINK-3148,1 49736U 21115N   23173.32717333 -.00000006  00000-0  17678-4 0  9994,2 49736  53.2169 279.5316 0000658  94.9041 265.2026 15.08839583 86980,6917.882,95.438,540.202,539.291,0.0
49736.0,STARLINK-3148,PAYLOAD,2023-06-22 14:12:40,15.08847963,7.25e-05,53.2161,278.3404,111.1066,249.0004,0.00023899,3.519e-05,0.0,0 STARLINK-3148,1 49736U 21115N   23173.59212964  .00003519  00000-0  23899-3 0  9995,2 49736  53.2161 278.3404 0000725 111.1066 249.0004 15.08847963 87024,6917.856,95.437,540.223,539.22,0.0
49736.0,STARLINK-3148,PAYLOAD,2023-06-23 10:52:41,15.08842018,7.56e-05,53.2156,274.475,89.766,270.3419,0.00012564,1.713e-05,0.0,0 STARLINK-3148,1 49736U 21115N   23174.45325301  .00001713  00000-0  12564-3 0  9992,2 49736  53.2156 274.4750 0000756  89.7660 270.3419 15.08842018 87150,6917.874,95.437,540.262,539.216,0.0
49736.0,STARLINK-3148,PAYLOAD,2023-06-24 15:29:37,15.08847025,8.21e-05,53.2155,269.1231,78.7637,281.3448,0.00029256,4.372e-05,0.0,0 STARLINK-3148,1 49736U 21115N   23175.64557308  .00004372  00000-0  29256-3 0  9998,2 49736  53.2155 269.1231 0000821  78.7637 281.3448 15.08847025 87336,6917.859,95.437,540.292,539.156,0.0
49736.0,STARLINK-3148,PAYLOAD,2023-06-25 01:01:56,15.08839704,7.26e-05,53.2153,267.3376,84.3031,275.8043,0.00010926,1.452e-05,0.0,0 STARLINK-3148,1 49736U 21115N   23176.04301468  .00001452  00000-0  10926-3 0  9997,2 49736  53.2153 267.3376 0000726  84.3031 275.8043 15.08839704 87399,6917.881,95.438,540.249,539.244,0.0
49736.0,STARLINK-3148,PAYLOAD,2023-06-26 07:14:16,15.08833473,7.32e-05,53.2161,261.6872,97.0328,263.0748,-5.6357e-06,-3.77e-06,0.0,0 STARLINK-3148,1 49736U 21115N   23177.30157923 -.00000377  00000-0 -56357-5 0  9999,2 49736  53.2161 261.6872 0000732  97.0328 263.0748 15.08833473 87582,6917.9,95.438,540.272,539.259,0.0
49736.0,STARLINK-3148,PAYLOAD,2023-06-26 15:11:11,15.08841261,7.46e-05,53.2161,260.1996,101.4013,258.7063,5.0309e-05,5.13e-06,0.0,0 STARLINK-3148,1 49736U 21115N   23177.63277729  .00000513  00000-0  50309-4 0  9992,2 49736  53.2161 260.1996 0000746 101.4013 258.7063 15.08841261 87630,6917.877,95.437,540.258,539.225,0.0
49736.0,STARLINK-3148,PAYLOAD,2023-06-28 10:06:36,15.08839649,7.56e-05,53.2158,252.1717,92.721,267.3869,0.00014469,2.016e-05,0.0,0 STARLINK-3148,1 49736U 21115N   23179.42126125  .00002016  00000-0  14469-3 0  9990,2 49736  53.2158 252.1717 0000756  92.7210 267.3869 15.08839649 87907,6917.881,95.438,540.269,539.223,0.0
49736.0,STARLINK-3148,PAYLOAD,2023-06-29 11:32:47,15.08840096,7.88e-05,53.2161,247.4136,90.2331,269.8751,2.7804e-05,1.55e-06,0.0,0 STARLINK-3148,1 49736U 21115N   23180.48110102  .00000155  00000-0  27804-4 0  9996,2 49736  53.2161 247.4136 0000788  90.2331 269.8751 15.08840096 88068,6917.88,95.438,540.29,539.2,0.0
49736.0,STARLINK-3148,PAYLOAD,2023-06-30 14:34:20,15.08845737,7.43e-05,53.2158,242.359,86.3076,273.8001,0.00015597,2.196e-05,0.0,0 STARLINK-3148,1 49736U 21115N   23181.60717783  .00002196  00000-0  15597-3 0  9991,2 49736  53.2158 242.3590 0000743  86.3076 273.8001 15.08845737 88234,6917.863,95.437,540.242,539.214,0.0
